RISAT-2BR2              
1 46905U 20081A   26068.52426450  .00004901  00000+0  37609-3 0  9996
2 46905  36.8980  95.9121 0010905  52.9142 307.2595 15.01602463292489
STARLINK-5345           
1 56517U 23065Q   26068.47741373 -.00000420  00000+0 -15983-4 0  9995
2 56517  43.0037 211.4220 0001386 272.0276  88.0407 15.02531997156594
